{"type": "FeatureCollection", "features": [ {"type": "Feature", "properties": {"norad_id": 66509, "name": "STARLINK-35598", "group": "last-30-days", "lat": -10.705857810322778, "lon": 162.0773009451421, "alt_km": 367.36100389850435, "timestamp": "2025-12-04T10:51:48.876213+00:00", "meta": {"OBJECT_NAME": "STARLINK-35598", "OBJECT_ID": "2025-263AA", "EPOCH": "2025-12-04T04:00:03.000096", "MEAN_MOTION": 15.68556591, "ECCENTRICITY": 0.0001398, "INCLINATION": 42.9991, "RA_OF_ASC_NODE": 175.5005, "ARG_OF_PERICENTER": 269.3787, "MEAN_ANOMALY": 258.867, "EPHEMERIS_TYPE": 0, "CLASSIFICATION_TYPE": "U", "NORAD_CAT_ID": 66509, "ELEMENT_SET_NO": 999, "REV_AT_EPOCH": 425, "BSTAR": -0.01925, "MEAN_MOTION_DOT": -0.01981478, "MEAN_MOTION_DDOT": 0}, "tle": {"line1": "1 66509U 25263AA  25338.16670139 -.01981478  00000+0 -19250-1 0  9995", "line2": "2 66509  42.9991 175.5005 0001398 269.3787 258.8670 15.68556591  4256"}}, "geometry": {"type": "Point", "coordinates": [162.0773009451421, -10.705857810322778]}}, {"type": "Feature", "properties": {"norad_id": 66510, "name": "STARLINK-35600", "group": "last-30-days", "lat": -14.509386711795749, "lon": 157.67357293213448, "alt_km": 367.59054254049624, "timestamp": "2025-12-04T10:51:48.876222+00:00", "meta": {"OBJECT_NAME": "STARLINK-35600", "OBJECT_ID": "2025-263AB", "EPOCH": "2025-12-04T04:00:03.000096", "MEAN_MOTION": 15.68553855, "ECCENTRICITY": 0.0001435, "INCLINATION": 42.9991, "RA_OF_ASC_NODE": 175.5154, "ARG_OF_PERICENTER": 272.2316, "MEAN_ANOMALY": 250.2651, "EPHEMERIS_TYPE": 0, "CLASSIFICATION_TYPE": "U", "NORAD_CAT_ID": 66510, "ELEMENT_SET_NO": 999, "REV_AT_EPOCH": 425, "BSTAR": -0.019222, "MEAN_MOTION_DOT": -0.01978814, "MEAN_MOTION_DDOT": 0}, "tle": {"line1": "1 66510U 25263AB  25338.16670139 -.01978814  00000+0 -19222-1 0  9996", "line2": "2 66510  42.9991 175.5154 0001435 272.2316 250.2651 15.68553855  4251"}}, "geometry": {"type": "Point", "coordinates": [157.67357293213448, -14.509386711795749]}}, {"type": "Feature", "properties": {"norad_id": 66511, "name": "STARLINK-35444", "group": "last-30-days", "lat": -11.981596216815351, "lon": 160.62449908771902, "alt_km": 367.402115476586, "timestamp": "2025-12-04T10:51:48.876232+00:00", "meta": {"OBJECT_NAME": "STARLINK-35444", "OBJECT_ID": "2025-263AC", "EPOCH": "2025-12-04T04:00:03.000096", "MEAN_MOTION": 15.68543981, "ECCENTRICITY": 0.0001391, "INCLINATION": 42.9991, "RA_OF_ASC_NODE": 175.5062, "ARG_OF_PERICENTER": 273.0484, "MEAN_ANOMALY": 253.2891, "EPHEMERIS_TYPE": 0, "CLASSIFICATION_TYPE": "U", "NORAD_CAT_ID": 66511, "ELEMENT_SET_NO": 999, "REV_AT_EPOCH": 425, "BSTAR": -0.019111, "MEAN_MOTION_DOT": -0.01967949, "MEAN_MOTION_DDOT": 0}, "tle": {"line1": "1 66511U 25263AC  25338.16670139 -.01967949  00000+0 -19111-1 0  9991", "line2": "2 66511  42.9991 175.5062 0001391 273.0484 253.2891 15.68543981  4254"}}, "geometry": {"type": "Point", "coordinates": [160.62449908771902, -11.981596216815351]}}, {"type": "Feature", "properties": {"norad_id": 66512, "name": "STARLINK-35366", "group": "last-30-days", "lat": -9.422979347216604, "lon": 163.5197481751984, "alt_km": 367.27051073564417, "timestamp": "2025-12-04T10:51:48.876247+00:00", "meta": {"OBJECT_NAME": "STARLINK-35366", "OBJECT_ID": "2025-263AD", "EPOCH": "2025-12-04T04:00:03.000096", "MEAN_MOTION": 15.68546601, "ECCENTRICITY": 0.0001357, "INCLINATION": 42.9991, "RA_OF_ASC_NODE": 175.4962, "ARG_OF_PERICENTER": 269.3445, "MEAN_ANOMALY": 260.8255, "EPHEMERIS_TYPE": 0, "CLASSIFICATION_TYPE": "U", "NORAD_CAT_ID": 66512, "ELEMENT_SET_NO": 999, "REV_AT_EPOCH": 425, "BSTAR": -0.019141, "MEAN_MOTION_DOT": -0.01970838, "MEAN_MOTION_DDOT": 0}, "tle": {"line1": "1 66512U 25263AD  25338.16670139 -.01970838  00000+0 -19141-1 0  9996", "line2": "2 66512  42.9991 175.4962 0001357 269.3445 260.8255 15.68546601  4250"}}, "geometry": {"type": "Point", "coordinates": [163.5197481751984, -9.422979347216604]}}, {"type": "Feature", "properties": {"norad_id": 66513, "name": "STARLINK-35692", "group": "last-30-days", "lat": -13.250073333377298, "lon": 159.15614677060987, "alt_km": 367.4691181769058, "timestamp": "2025-12-04T10:51:48.876277+00:00", "meta": {"OBJECT_NAME": "STARLINK-35692", "OBJECT_ID": "2025-263AE", "EPOCH": "2025-12-04T04:00:03.000096", "MEAN_MOTION": 15.68552877, "ECCENTRICITY": 0.0001406, "INCLINATION": 42.9991, "RA_OF_ASC_NODE": 175.5106, "ARG_OF_PERICENTER": 274.1946, "MEAN_ANOMALY": 250.22, "EPHEMERIS_TYPE": 0, "CLASSIFICATION_TYPE": "U", "NORAD_CAT_ID": 66513, "ELEMENT_SET_NO": 999, "REV_AT_EPOCH": 425, "BSTAR": -0.019216, "MEAN_MOTION_DOT": -0.01978167, "MEAN_MOTION_DDOT": 0}, "tle": {"line1": "1 66513U 25263AE  25338.16670139 -.01978167  00000+0 -19216-1 0  9993", "line2": "2 66513  42.9991 175.5106 0001406 274.1946 250.2200 15.68552877  4252"}}, "geometry": {"type": "Point", "coordinates": [159.15614677060987, -13.250073333377298]}}, {"type": "Feature", "properties": {"norad_id": 66514, "name": "SENTINEL-6B", "group": "last-30-days", "lat": -22.19080336431207, "lon": 169.27105245947084, "alt_km": 1318.8299126417796, "timestamp": "2025-12-04T10:51:48.876290+00:00", "meta": {"OBJECT_NAME": "SENTINEL-6B", "OBJECT_ID": "2025-264A", "EPOCH": "2025-12-03T21:55:25.872096", "MEAN_MOTION": 12.85877574, "ECCENTRICITY": 0.0011544, "INCLINATION": 66.039, "RA_OF_ASC_NODE": 180.8509, "ARG_OF_PERICENTER": 268.5805, "MEAN_ANOMALY": 91.389, "EPHEMERIS_TYPE": 0, "CLASSIFICATION_TYPE": "U", "NORAD_CAT_ID": 66514, "ELEMENT_SET_NO": 999, "REV_AT_EPOCH": 215, "BSTAR": 0.00031328, "MEAN_MOTION_DOT": 1.5e-07, "MEAN_MOTION_DDOT": 0}, "tle": {"line1": "1 66514U 25264A   25337.91349389  .00000015  00000+0  31328-3 0  9992", "line2": "2 66514  66.0390 180.8509 0011544 268.5805  91.3890 12.85877574  2150"}}, "geometry": {"type": "Point", "coordinates": [169.27105245947084, -22.19080336431207]}}, {"type": "Feature", "properties": {"norad_id": 66516, "name": "STARLINK-35924", "group": "last-30-days", "lat": 18.73202419536503, "lon": 124.39691332509244, "alt_km": 345.197285523911, "timestamp": "2025-12-04T10:51:48.876303+00:00", "meta": {"OBJECT_NAME": "STARLINK-35924", "OBJECT_ID": "2025-265A", "EPOCH": "2025-12-04T04:00:03.000096", "MEAN_MOTION": 15.75127595, "ECCENTRICITY": 0.0001325, "INCLINATION": 42.9998, "RA_OF_ASC_NODE": 104.7901, "ARG_OF_PERICENTER": 267.7683, "MEAN_ANOMALY": 297.5734, "EPHEMERIS_TYPE": 0, "CLASSIFICATION_TYPE": "U", "NORAD_CAT_ID": 66516, "ELEMENT_SET_NO": 999, "REV_AT_EPOCH": 359, "BSTAR": -0.013937, "MEAN_MOTION_DOT": -0.01873126, "MEAN_MOTION_DDOT": 0}, "tle": {"line1": "1 66516U 25265A   25338.16670139 -.01873126  00000+0 -13937-1 0  9991", "line2": "2 66516  42.9998 104.7901 0001325 267.7683 297.5734 15.75127595  3590"}}, "geometry": {"type": "Point", "coordinates": [124.39691332509244, 18.73202419536503]}}, {"type": "Feature", "properties": {"norad_id": 66517, "name": "STARLINK-35937", "group": "last-30-days", "lat": 19.932539545094993, "lon": 125.95444727175746, "alt_km": 345.1405631284242, "timestamp": "2025-12-04T10:51:48.876314+00:00", "meta": {"OBJECT_NAME": "STARLINK-35937", "OBJECT_ID": "2025-265B", "EPOCH": "2025-12-04T04:00:03.000096", "MEAN_MOTION": 15.75195961, "ECCENTRICITY": 0.0001252, "INCLINATION": 42.9999, "RA_OF_ASC_NODE": 104.7858, "ARG_OF_PERICENTER": 257.5172, "MEAN_ANOMALY": 309.6847, "EPHEMERIS_TYPE": 0, "CLASSIFICATION_TYPE": "U", "NORAD_CAT_ID": 66517, "ELEMENT_SET_NO": 999, "REV_AT_EPOCH": 361, "BSTAR": -0.01455, "MEAN_MOTION_DOT": -0.01949212, "MEAN_MOTION_DDOT": 0}, "tle": {"line1": "1 66517U 25265B   25338.16670139 -.01949212  00000+0 -14550-1 0  9994", "line2": "2 66517  42.9999 104.7858 0001252 257.5172 309.6847 15.75195961  3617"}}, "geometry": {"type": "Point", "coordinates": [125.95444727175746, 19.932539545094993]}}, {"type": "Feature", "properties": {"norad_id": 66518, "name": "STARLINK-35962", "group": "last-30-days", "lat": 21.130451065809144, "lon": 127.55070285458241, "alt_km": 344.9697035823201, "timestamp": "2025-12-04T10:51:48.876326+00:00", "meta": {"OBJECT_NAME": "STARLINK-35962", "OBJECT_ID": "2025-265C", "EPOCH": "2025-12-04T04:00:03.000096", "MEAN_MOTION": 15.75179021, "ECCENTRICITY": 0.0001508, "INCLINATION": 42.9998, "RA_OF_ASC_NODE": 104.7809, "ARG_OF_PERICENTER": 265.3146, "MEAN_ANOMALY": 303.8122, "EPHEMERIS_TYPE": 0, "CLASSIFICATION_TYPE": "U", "NORAD_CAT_ID": 66518, "ELEMENT_SET_NO": 999, "REV_AT_EPOCH": 361, "BSTAR": -0.014411, "MEAN_MOTION_DOT": -0.01932108, "MEAN_MOTION_DDOT": 0}, "tle": {"line1": "1 66518U 25265C   25338.16670139 -.01932108  00000+0 -14411-1 0  9997", "line2": "2 66518  42.9998 104.7809 0001508 265.3146 303.8122 15.75179021  3616"}}, "geometry": {"type": "Point", "coordinates": [127.55070285458241, 21.130451065809144]}}, {"type": "Feature", "properties": {"norad_id": 66519, "name": "STARLINK-35931", "group": "last-30-days", "lat": 22.31396500561039, "lon": 129.17361974923264, "alt_km": 344.8303878615234, "timestamp": "2025-12-04T10:51:48.876336+00:00", "meta": {"OBJECT_NAME": "STARLINK-35931", "OBJECT_ID": "2025-265D", "EPOCH": "2025-12-04T04:00:03.000096", "MEAN_MOTION": 15.75177594, "ECCENTRICITY": 0.0001458, "INCLINATION": 43, "RA_OF_ASC_NODE": 104.7758, "ARG_OF_PERICENTER": 263.021, "MEAN_ANOMALY": 308.0265, "EPHEMERIS_TYPE": 0, "CLASSIFICATION_TYPE": "U", "NORAD_CAT_ID": 66519, "ELEMENT_SET_NO": 999, "REV_AT_EPOCH": 361, "BSTAR": -0.014392, "MEAN_MOTION_DOT": -0.01929803, "MEAN_MOTION_DDOT": 0}, "tle": {"line1": "1 66519U 25265D   25338.16670139 -.01929803  00000+0 -14392-1 0  9994", "line2": "2 66519  43.0000 104.7758 0001458 263.0210 308.0265 15.75177594  3615"}}, "geometry": {"type": "Point", "coordinates": [129.17361974923264, 22.31396500561039]}}]}